ONEWEB-0634             
1 56075U 23043AF  25237.74223278  .00000096  00000+0  22186-3 0  9995
2 56075  87.9077 318.1708 0001695 106.6106 253.5211 13.15548341117555
ONEWEB-0635             
1 56076U 23043AG  25237.73748016 -.00000030  00000+0 -11360-3 0  9999
2 56076  87.9048 318.1385 0002207  95.2749 264.8634 13.15548009117589
ONEWEB-0636             
1 56077U 23043AH  25237.72956063 -.00000032  00000+0 -11952-3 0  9991
2 56077  87.9056 318.1551 0002153  96.0705 264.0671 13.15548033117563
ONEWEB-0637             
1 56078U 23043AJ  25237.72322662 -.00000127  00000+0 -37179-3 0  9998
2 56078  87.9060 318.1688 0002225 105.1022 255.0355 13.15547268117584
ONEWEB-0647             
1 56079U 23043AK  25237.71846233 -.00000163  00000+0 -46746-3 0  9993
2 56079  87.9069 318.1819 0001979  93.6445 266.4911 13.15548037117573
ONEWEB-0651             
1 56080U 23043AL  25237.71371109 -.00000107  00000+0 -31751-3 0  9998
2 56080  87.9077 318.1728 0002234  99.8325 260.3057 13.15548187118776
ONEWEB-0718             
1 56081U 23043AM  25237.78502480 -.00000219  00000+0 -61495-3 0  9996
2 56081  87.9071 318.1408 0001683 116.3527 243.7776 13.15547973117596
ONEWEB-0561             
1 56710U 23068A   25237.74628588  .00000059  00000+0  11314-3 0  9991
2 56710  87.9292 333.3400 0002314  90.2878 269.8521 13.20772076110503
